start=new Date('2022-06-15T00:00:00.000Z').valueOf();
sats=[{"SITE":"AFETR","GP_ID":"206145669","TLE_LINE1":"1 45228U 20012BC  22165.84289844  .00001426  00000-0  11465-3 0  9992","ARG_OF_PERICENTER":"59.1740","MEAN_MOTION_DDOT":"0.0000000000000","EPHEMERIS_TYPE":"0","MEAN_MOTION_DOT":"0.00001426","REV_AT_EPOCH":"12889","FILE":"3496100","CENTER_NAME":"EARTH","LAUNCH_DATE":"2020-02-17","CLASSIFICATION_TYPE":"U","BSTAR":"0.00011465000000","RCS_SIZE":"LARGE","PERIAPSIS":"545.921","ECCENTRICITY":"0.00018700","MEAN_ELEMENT_THEORY":"SGP4","ELEMENT_SET_NO":"999","MEAN_MOTION":"15.06399227","MEAN_ANOMALY":"300.9433","TIME_SYSTEM":"UTC","TLE_LINE2":"2 45228  53.0546   9.1630 0001870  59.1740 300.9433 15.06399227128891","NORAD_CAT_ID":"45228","DECAY_DATE":null,"OBJECT_ID":"2020-012BC","PERIOD":"95.592","REF_FRAME":"TEME","SEMIMAJOR_AXIS":"6925.351","COUNTRY_CODE":"US","OBJECT_TYPE":"PAYLOAD","INCLINATION":"53.0546","EPOCH":"2022-06-14T20:13:46.425216","APOAPSIS":"548.511","RA_OF_ASC_NODE":"9.1630","OBJECT_NAME":"STARLINK-1222"},{"INCLINATION":"53.0562","COUNTRY_CODE":"US","OBJECT_TYPE":"PAYLOAD","OBJECT_NAME":"STARLINK-1226","APOAPSIS":"548.369","RA_OF_ASC_NODE":"9.0481","EPOCH":"2022-06-14T20:56:14.085600","TLE_LINE2":"2 45229  53.0562   9.0481 0001672  57.7429 302.3722 15.06400833129738","TIME_SYSTEM":"UTC","NORAD_CAT_ID":"45229","MEAN_MOTION":"15.06400833","MEAN_ANOMALY":"302.3722","ELEMENT_SET_NO":"999","MEAN_ELEMENT_THEORY":"SGP4","REF_FRAME":"TEME","SEMIMAJOR_AXIS":"6925.346","PERIOD":"95.592","DECAY_DATE":null,"OBJECT_ID":"2020-012BD","BSTAR":"-0.00000159800000","CENTER_NAME":"EARTH","LAUNCH_DATE":"2020-02-17","CLASSIFICATION_TYPE":"U","ECCENTRICITY":"0.00016720","PERIAPSIS":"546.053","RCS_SIZE":"LARGE","MEAN_MOTION_DDOT":"0.0000000000000","TLE_LINE1":"1 45229U 20012BD  22165.87238525 -.00000305  00000-0 -15980-5 0  9991","GP_ID":"206167252","ARG_OF_PERICENTER":"57.7429","SITE":"AFETR","FILE":"3496199","EPHEMERIS_TYPE":"0","MEAN_MOTION_DOT":"-0.00000305","REV_AT_EPOCH":"12973"},{"INCLINATION":"53.0561","COUNTRY_CODE":"US","OBJECT_TYPE":"PAYLOAD","APOAPSIS":"548.314","RA_OF_ASC_NODE":"9.0463","OBJECT_NAME":"STARLINK-1227","EPOCH":"2022-06-14T20:50:56.461920","MEAN_MOTION":"15.06392530","MEAN_ANOMALY":"294.5372","TIME_SYSTEM":"UTC","TLE_LINE2":"2 45230  53.0561   9.0463 0001556  65.5779 294.5372 15.06392530129855","NORAD_CAT_ID":"45230","MEAN_ELEMENT_THEORY":"SGP4","ELEMENT_SET_NO":"999","PERIOD":"95.593","REF_FRAME":"TEME","SEMIMAJOR_AXIS":"6925.371","DECAY_DATE":null,"OBJECT_ID":"2020-012BE","BSTAR":"-0.00005871300000","CENTER_NAME":"EARTH","LAUNCH_DATE":"2020-02-17","CLASSIFICATION_TYPE":"U","ECCENTRICITY":"0.00015560","RCS_SIZE":"LARGE","PERIAPSIS":"546.159","ARG_OF_PERICENTER":"65.5779","TLE_LINE1":"1 45230U 20012BE  22165.86870905 -.00001156  00000-0 -58713-4 0  9991","GP_ID":"206167998","MEAN_MOTION_DDOT":"0.0000000000000","SITE":"AFETR","FILE":"3496199","EPHEMERIS_TYPE":"0","MEAN_MOTION_DOT":"-0.00001156","REV_AT_EPOCH":"12985"},{"ECCENTRICITY":"0.00084790","PERIAPSIS":"334.037","RCS_SIZE":"LARGE","BSTAR":"-0.00000935490000","CLASSIFICATION_TYPE":"U","CENTER_NAME":"EARTH","LAUNCH_DATE":"2020-02-17","FILE":"3496199","REV_AT_EPOCH":"13212","MEAN_MOTION_DOT":"-0.00002203","EPHEMERIS_TYPE":"0","MEAN_MOTION_DDOT":"0.0000000000000","TLE_LINE1":"1 45231U 20012BF  22165.79467654 -.00002203  00000-0 -93549-5 0  9998","ARG_OF_PERICENTER":"294.1949","GP_ID":"206166751","SITE":"AFETR","OBJECT_NAME":"STARLINK-1229","RA_OF_ASC_NODE":"195.5254","APOAPSIS":"345.429","EPOCH":"2022-06-14T19:04:20.053056","INCLINATION":"53.0222","OBJECT_TYPE":"PAYLOAD","COUNTRY_CODE":"US","SEMIMAJOR_AXIS":"6717.868","REF_FRAME":"TEME","PERIOD":"91.329","OBJECT_ID":"2020-012BF","DECAY_DATE":null,"NORAD_CAT_ID":"45231","TLE_LINE2":"2 45231  53.0222 195.5254 0008479 294.1949  65.8183 15.76723633132121","TIME_SYSTEM":"UTC","MEAN_MOTION":"15.76723633","MEAN_ANOMALY":"65.8183","ELEMENT_SET_NO":"999","MEAN_ELEMENT_THEORY":"SGP4"},{"ELEMENT_SET_NO":"999","MEAN_ELEMENT_THEORY":"SGP4","TIME_SYSTEM":"UTC","TLE_LINE2":"2 45232  53.0560   8.9905 0001479  59.6248 300.4887 15.06399206129848","NORAD_CAT_ID":"45232","MEAN_MOTION":"15.06399206","MEAN_ANOMALY":"300.4887","DECAY_DATE":null,"OBJECT_ID":"2020-012BG","REF_FRAME":"TEME","SEMIMAJOR_AXIS":"6925.351","PERIOD":"95.592","COUNTRY_CODE":"US","OBJECT_TYPE":"PAYLOAD","INCLINATION":"53.0560","EPOCH":"2022-06-14T21:05:29.901984","OBJECT_NAME":"STARLINK-1235","APOAPSIS":"548.240","RA_OF_ASC_NODE":"8.9905","SITE":"AFETR","MEAN_MOTION_DDOT":"0.0000000000000","ARG_OF_PERICENTER":"59.6248","TLE_LINE1":"1 45232U 20012BG  22165.87881831 -.00001041  00000-0 -50984-4 0  9999","GP_ID":"206167001","MEAN_MOTION_DOT":"-0.00001041","REV_AT_EPOCH":"12984","EPHEMERIS_TYPE":"0","FILE":"3496199","CENTER_NAME":"EARTH","LAUNCH_DATE":"2020-02-17","CLASSIFICATION_TYPE":"U","BSTAR":"-0.00005098400000","PERIAPSIS":"546.192","RCS_SIZE":"LARGE","ECCENTRICITY":"0.00014790"},{"MEAN_MOTION_DOT":"0.00000704","REV_AT_EPOCH":"12861","EPHEMERIS_TYPE":"0","FILE":"3496102","SITE":"AFETR","MEAN_MOTION_DDOT":"0.0000000000000","GP_ID":"206145692","TLE_LINE1":"1 45233U 20012BH  22165.85948688  .00000704  00000-0  66147-4 0  9993","ARG_OF_PERICENTER":"66.5144","PERIAPSIS":"546.114","RCS_SIZE":"LARGE","ECCENTRICITY":"0.00016310","CENTER_NAME":"EARTH","LAUNCH_DATE":"2020-02-17","CLASSIFICATION_TYPE":"U","BSTAR":"0.00006614700000","DECAY_DATE":null,"OBJECT_ID":"2020-012BH","REF_FRAME":"TEME","SEMIMAJOR_AXIS":"6925.378","PERIOD":"95.593","ELEMENT_SET_NO":"999","MEAN_ELEMENT_THEORY":"SGP4","TLE_LINE2":"2 45233  53.0558  29.0949 0001631  66.5144 293.6017 15.06390356128619","TIME_SYSTEM":"UTC","NORAD_CAT_ID":"45233","MEAN_MOTION":"15.06390356","MEAN_ANOMALY":"293.6017","EPOCH":"2022-06-14T20:37:39.666432","OBJECT_NAME":"STARLINK-1238","APOAPSIS":"548.373","RA_OF_ASC_NODE":"29.0949","COUNTRY_CODE":"US","OBJECT_TYPE":"PAYLOAD","INCLINATION":"53.0558"},{"TLE_LINE1":"1 45234U 20012BJ  22165.69914639  .00000938  00000-0  81862-4 0  9995","ARG_OF_PERICENTER":"70.3869","GP_ID":"206167499","MEAN_MOTION_DDOT":"0.0000000000000","SITE":"AFETR","FILE":"3496199","REV_AT_EPOCH":"12922","MEAN_MOTION_DOT":"0.00000938","EPHEMERIS_TYPE":"0","BSTAR":"0.00008186200000","CENTER_NAME":"EARTH","LAUNCH_DATE":"2020-02-17","CLASSIFICATION_TYPE":"U","ECCENTRICITY":"0.00017000","RCS_SIZE":"LARGE","PERIAPSIS":"546.040","MEAN_MOTION":"15.06398796","MEAN_ANOMALY":"289.7303","TLE_LINE2":"2 45234  53.0572  49.8129 0001700  70.3869 289.7303 15.06398796129228","TIME_SYSTEM":"UTC","NORAD_CAT_ID":"45234","MEAN_ELEMENT_THEORY":"SGP4","ELEMENT_SET_NO":"999","PERIOD":"95.592","REF_FRAME":"TEME","SEMIMAJOR_AXIS":"6925.352","DECAY_DATE":null,"OBJECT_ID":"2020-012BJ","INCLINATION":"53.0572","COUNTRY_CODE":"US","OBJECT_TYPE":"PAYLOAD","APOAPSIS":"548.395","RA_OF_ASC_NODE":"49.8129","OBJECT_NAME":"STARLINK-1243","EPOCH":"2022-06-14T16:46:46.248096"},{"APOAPSIS":"548.523","RA_OF_ASC_NODE":"48.9757","OBJECT_NAME":"STARLINK-1246","EPOCH":"2022-06-14T21:12:09.501984","INCLINATION":"53.0545","COUNTRY_CODE":"US","OBJECT_TYPE":"PAYLOAD","PERIOD":"95.592","REF_FRAME":"TEME","SEMIMAJOR_AXIS":"6925.341","DECAY_DATE":null,"OBJECT_ID":"2020-012BK","MEAN_MOTION":"15.06402525","MEAN_ANOMALY":"310.5388","TLE_LINE2":"2 45235  53.0545  48.9757 0001902  49.5766 310.5388 15.06402525129305","TIME_SYSTEM":"UTC","NORAD_CAT_ID":"45235","MEAN_ELEMENT_THEORY":"SGP4","ELEMENT_SET_NO":"999","ECCENTRICITY":"0.00019020","RCS_SIZE":"LARGE","PERIAPSIS":"545.889","BSTAR":"0.00009325800000","LAUNCH_DATE":"2020-02-17","CENTER_NAME":"EARTH","CLASSIFICATION_TYPE":"U","FILE":"3496199","MEAN_MOTION_DOT":"0.00001108","EPHEMERIS_TYPE":"0","REV_AT_EPOCH":"12930","GP_ID":"206166252","TLE_LINE1":"1 45235U 20012BK  22165.88344331  .00001108  00000-0  93258-4 0  9995","ARG_OF_PERICENTER":"49.5766","MEAN_MOTION_DDOT":"0.0000000000000","SITE":"AFETR"},{"RCS_SIZE":"LARGE","PERIAPSIS":"545.863","ECCENTRICITY":"0.00020040","CLASSIFICATION_TYPE":"U","LAUNCH_DATE":"2020-02-17","CENTER_NAME":"EARTH","BSTAR":"0.00019800000000","MEAN_MOTION_DOT":"0.00002668","REV_AT_EPOCH":"12983","EPHEMERIS_TYPE":"0","FILE":"3496199","SITE":"AFETR","TLE_LINE1":"1 45236U 20012BL  22165.86501892  .00002668  00000-0  19800-3 0  9993","GP_ID":"206166502","ARG_OF_PERICENTER":"52.4597","MEAN_MOTION_DDOT":"0.0000000000000","EPOCH":"2022-06-14T20:45:37.634688","RA_OF_ASC_NODE":"9.0589","APOAPSIS":"548.639","OBJECT_NAME":"STARLINK-1247","OBJECT_TYPE":"PAYLOAD","COUNTRY_CODE":"US","INCLINATION":"53.0570","OBJECT_ID":"2020-012BL","DECAY_DATE":null,"PERIOD":"95.593","SEMIMAJOR_AXIS":"6925.386","REF_FRAME":"TEME","MEAN_ELEMENT_THEORY":"SGP4","ELEMENT_SET_NO":"999","MEAN_MOTION":"15.06387744","MEAN_ANOMALY":"307.6574","NORAD_CAT_ID":"45236","TLE_LINE2":"2 45236  53.0570   9.0589 0002004  52.4597 307.6574 15.06387744129831","TIME_SYSTEM":"UTC"},{"FILE":"3496199","REV_AT_EPOCH":"12984","MEAN_MOTION_DOT":"-0.00001204","EPHEMERIS_TYPE":"0","TLE_LINE1":"1 45237U 20012BM  22165.88713299 -.00001204  00000-0 -61945-4 0  9997","ARG_OF_PERICENTER":"70.6895","GP_ID":"206167253","MEAN_MOTION_DDOT":"0.0000000000000","SITE":"AFETR","ECCENTRICITY":"0.00015150","RCS_SIZE":"LARGE","PERIAPSIS":"546.173","BSTAR":"-0.00006194500000","CLASSIFICATION_TYPE":"U","CENTER_NAME":"EARTH","LAUNCH_DATE":"2020-02-17","PERIOD":"95.592","SEMIMAJOR_AXIS":"6925.357","REF_FRAME":"TEME","OBJECT_ID":"2020-012BM","DECAY_DATE":null,"MEAN_MOTION":"15.06397101","MEAN_ANOMALY":"289.4258","NORAD_CAT_ID":"45237","TIME_SYSTEM":"UTC","TLE_LINE2":"2 45237  53.0546   8.9704 0001515  70.6895 289.4258 15.06397101129846","MEAN_ELEMENT_THEORY":"SGP4","ELEMENT_SET_NO":"999","RA_OF_ASC_NODE":"8.9704","APOAPSIS":"548.272","OBJECT_NAME":"STARLINK-1270","EPOCH":"2022-06-14T21:17:28.290336","INCLINATION":"53.0546","OBJECT_TYPE":"PAYLOAD","COUNTRY_CODE":"US"}];
